MTI                     
1 26102U 00014A   20119.12734089  .00004123  00000-0  61988-4 0  9999
2 26102  97.5110 358.8003 0009292  57.8210 302.3943 15.55448641116698
CFESAT                  
1 30777U 07006F   20119.12510917  .00002861  00000-0  79789-4 0  9997
2 30777  35.4253 276.1647 0004062  92.7445 267.3746 15.36493918728713
SPIRALE A               
1 33751U 09008C   20118.67373041  .00000039  00000-0  15180-3 0  9999
2 33751   2.0327 260.8022 5379952 238.1623  58.4926  4.58737716158950
SPIRALE B               
1 33752U 09008D   20117.45051802  .00002523  00000-0  46717-3 0  9993
2 33752   1.8367 173.8431 6918712  40.2658 354.4843  2.75599035103362
SAPPHIRE                
1 39088U 13009C   20119.18392752 -.00000020  00000-0  81065-5 0  9999
2 39088  98.4743 321.5846 0012572  76.5204 283.7381 14.34206799375276
